CCSDS_OMM_VERS = 2.0
CREATION_DATE  = 
ORIGINATOR     = 

OBJECT_NAME    = SL-16 R/B
OBJECT_ID      = 1992-093B
CENTER_NAME    = EARTH
REF_FRAME      = TEME
TIME_SYSTEM    = UTC
MEAN_ELEMENT_THEORY = SGP/SGP4

EPOCH          = 2025-11-11T05:23:36.919968
MEAN_MOTION    = 14.15422771
ECCENTRICITY   = .00029014
INCLINATION    = 71.0211
RA_OF_ASC_NODE = 252.9487
ARG_OF_PERICENTER = 157.2328
MEAN_ANOMALY   = 202.8924

EPHEMERIS_TYPE = 0
CLASSIFICATION_TYPE = U
NORAD_CAT_ID   = 22285
ELEMENT_SET_NO = 999
REV_AT_EPOCH   = 69639
BSTAR          = .23696466E-3
MEAN_MOTION_DOT = .415E-5
MEAN_MOTION_DDOT = 0

CCSDS_OMM_VERS = 2.0
CREATION_DATE  = 
ORIGINATOR     = 

OBJECT_NAME    = COSMOS 2228
OBJECT_ID      = 1992-094A
CENTER_NAME    = EARTH
REF_FRAME      = TEME
TIME_SYSTEM    = UTC
MEAN_ELEMENT_THEORY = SGP/SGP4

EPOCH          = 2025-11-11T06:23:59.045568
MEAN_MOTION    = 14.96514239
ECCENTRICITY   = .00175503
INCLINATION    = 82.5189
RA_OF_ASC_NODE = 350.6462
ARG_OF_PERICENTER = 345.7184
MEAN_ANOMALY   = 14.3539

EPHEMERIS_TYPE = 0
CLASSIFICATION_TYPE = U
NORAD_CAT_ID   = 22286
ELEMENT_SET_NO = 999
REV_AT_EPOCH   = 75834
BSTAR          = .31326197E-3
MEAN_MOTION_DOT = .3595E-4
MEAN_MOTION_DDOT = 0

CCSDS_OMM_VERS = 2.0
CREATION_DATE  = 
ORIGINATOR     = 

OBJECT_NAME    = SL-16 R/B
OBJECT_ID      = 1993-016B
CENTER_NAME    = EARTH
REF_FRAME      = TEME
TIME_SYSTEM    = UTC
MEAN_ELEMENT_THEORY = SGP/SGP4

EPOCH          = 2025-11-11T02:41:16.740384
MEAN_MOTION    = 14.15279131
ECCENTRICITY   = .00091842
INCLINATION    = 71.0054
RA_OF_ASC_NODE = 104.2276
ARG_OF_PERICENTER = 155.1497
MEAN_ANOMALY   = 205.0070

EPHEMERIS_TYPE = 0
CLASSIFICATION_TYPE = U
NORAD_CAT_ID   = 22566
ELEMENT_SET_NO = 999
REV_AT_EPOCH   = 68539
BSTAR          = .11158183E-3
MEAN_MOTION_DOT = .17E-5
MEAN_MOTION_DDOT = 0

CCSDS_OMM_VERS = 2.0
CREATION_DATE  = 
ORIGINATOR     = 

OBJECT_NAME    = COSMOS 2242
OBJECT_ID      = 1993-024A
CENTER_NAME    = EARTH
REF_FRAME      = TEME
TIME_SYSTEM    = UTC
MEAN_ELEMENT_THEORY = SGP/SGP4

EPOCH          = 2025-11-11T06:23:17.831040
MEAN_MOTION    = 14.95912266
ECCENTRICITY   = .00159994
INCLINATION    = 82.5213
RA_OF_ASC_NODE = 19.9199
ARG_OF_PERICENTER = 348.7794
MEAN_ANOMALY   = 11.3068

EPHEMERIS_TYPE = 0
CLASSIFICATION_TYPE = U
NORAD_CAT_ID   = 22626
ELEMENT_SET_NO = 999
REV_AT_EPOCH   = 76268
BSTAR          = .33244339E-3
MEAN_MOTION_DOT = .3753E-4
MEAN_MOTION_DDOT = 0

CCSDS_OMM_VERS = 2.0
CREATION_DATE  = 
ORIGINATOR     = 

OBJECT_NAME    = SL-16 R/B
OBJECT_ID      = 1993-059B
CENTER_NAME    = EARTH
REF_FRAME      = TEME
TIME_SYSTEM    = UTC
MEAN_ELEMENT_THEORY = SGP/SGP4

EPOCH          = 2025-11-11T06:03:32.607936
MEAN_MOTION    = 14.17204206
ECCENTRICITY   = .00160708
INCLINATION    = 70.9896
RA_OF_ASC_NODE = 260.8815
ARG_OF_PERICENTER = 23.5931
MEAN_ANOMALY   = 336.5926

EPHEMERIS_TYPE = 0
CLASSIFICATION_TYPE = U
NORAD_CAT_ID   = 22803
ELEMENT_SET_NO = 999
REV_AT_EPOCH   = 66275
BSTAR          = .19390813E-3
MEAN_MOTION_DOT = .344E-5
MEAN_MOTION_DDOT = 0

CCSDS_OMM_VERS = 2.0
CREATION_DATE  = 
ORIGINATOR     = 

OBJECT_NAME    = ARIANE 40 R/B
OBJECT_ID      = 1993-061H
CENTER_NAME    = EARTH
REF_FRAME      = TEME
TIME_SYSTEM    = UTC
MEAN_ELEMENT_THEORY = SGP/SGP4

EPOCH          = 2025-11-11T04:37:45.609600
MEAN_MOTION    = 14.32770461
ECCENTRICITY   = .00096024
INCLINATION    = 98.5114
RA_OF_ASC_NODE = 21.2913
ARG_OF_PERICENTER = 275.1524
MEAN_ANOMALY   = 84.8564

EPHEMERIS_TYPE = 0
CLASSIFICATION_TYPE = U
NORAD_CAT_ID   = 22830
ELEMENT_SET_NO = 999
REV_AT_EPOCH   = 67713
BSTAR          = .16425488E-3
MEAN_MOTION_DOT = .404E-5
MEAN_MOTION_DDOT = 0

CCSDS_OMM_VERS = 2.0
CREATION_DATE  = 
ORIGINATOR     = 

OBJECT_NAME    = COSMOS 2278
OBJECT_ID      = 1994-023A
CENTER_NAME    = EARTH
REF_FRAME      = TEME
TIME_SYSTEM    = UTC
MEAN_ELEMENT_THEORY = SGP/SGP4

EPOCH          = 2025-11-11T06:36:29.916000
MEAN_MOTION    = 14.14335991
ECCENTRICITY   = .00100887
INCLINATION    = 71.0536
RA_OF_ASC_NODE = 62.8353
ARG_OF_PERICENTER = 219.6377
MEAN_ANOMALY   = 140.4010

EPHEMERIS_TYPE = 0
CLASSIFICATION_TYPE = U
NORAD_CAT_ID   = 23087
ELEMENT_SET_NO = 999
REV_AT_EPOCH   = 62806
BSTAR          = .24575339E-3
MEAN_MOTION_DOT = .423E-5
MEAN_MOTION_DDOT = 0

CCSDS_OMM_VERS = 2.0
CREATION_DATE  = 
ORIGINATOR     = 

OBJECT_NAME    = SL-16 R/B
OBJECT_ID      = 1994-023B
CENTER_NAME    = EARTH
REF_FRAME      = TEME
TIME_SYSTEM    = UTC
MEAN_ELEMENT_THEORY = SGP/SGP4

EPOCH          = 2025-11-11T07:19:34.012128
MEAN_MOTION    = 14.14992665
ECCENTRICITY   = .00014483
INCLINATION    = 70.9998
RA_OF_ASC_NODE = 319.5015
ARG_OF_PERICENTER = 166.9820
MEAN_ANOMALY   = 193.1341

EPHEMERIS_TYPE = 0
CLASSIFICATION_TYPE = U
NORAD_CAT_ID   = 23088
ELEMENT_SET_NO = 999
REV_AT_EPOCH   = 62934
BSTAR          = -.55871398E-4
MEAN_MOTION_DOT = -.156E-5
MEAN_MOTION_DDOT = 0

CCSDS_OMM_VERS = 2.0
CREATION_DATE  = 
ORIGINATOR     = 

OBJECT_NAME    = SL-16 R/B
OBJECT_ID      = 1994-074B
CENTER_NAME    = EARTH
REF_FRAME      = TEME
TIME_SYSTEM    = UTC
MEAN_ELEMENT_THEORY = SGP/SGP4

EPOCH          = 2025-11-11T02:02:29.702400
MEAN_MOTION    = 14.79233286
ECCENTRICITY   = .00052573
INCLINATION    = 97.7243
RA_OF_ASC_NODE = 345.6416
ARG_OF_PERICENTER = 241.7794
MEAN_ANOMALY   = 175.6275

EPHEMERIS_TYPE = 0
CLASSIFICATION_TYPE = U
NORAD_CAT_ID   = 23343
ELEMENT_SET_NO = 999
REV_AT_EPOCH   = 66971
BSTAR          = .11764738E-3
MEAN_MOTION_DOT = .825E-5
MEAN_MOTION_DDOT = 0

CCSDS_OMM_VERS = 2.0
CREATION_DATE  = 
ORIGINATOR     = 

OBJECT_NAME    = SL-16 R/B
OBJECT_ID      = 1994-077B
CENTER_NAME    = EARTH
REF_FRAME      = TEME
TIME_SYSTEM    = UTC
MEAN_ELEMENT_THEORY = SGP/SGP4

EPOCH          = 2025-11-11T04:36:04.518144
MEAN_MOTION    = 14.15543482
ECCENTRICITY   = .00038516
INCLINATION    = 70.9826
RA_OF_ASC_NODE = 241.7796
ARG_OF_PERICENTER = 310.1878
MEAN_ANOMALY   = 49.8907

EPHEMERIS_TYPE = 0
CLASSIFICATION_TYPE = U
NORAD_CAT_ID   = 23405
ELEMENT_SET_NO = 999
REV_AT_EPOCH   = 59946
BSTAR          = .21246977E-3
MEAN_MOTION_DOT = .368E-5
MEAN_MOTION_DDOT = 0

CCSDS_OMM_VERS = 2.0
CREATION_DATE  = 
ORIGINATOR     = 

OBJECT_NAME    = ARIANE 40+ R/B
OBJECT_ID      = 1995-021B
CENTER_NAME    = EARTH
REF_FRAME      = TEME
TIME_SYSTEM    = UTC
MEAN_ELEMENT_THEORY = SGP/SGP4

EPOCH          = 2025-11-11T04:14:32.817408
MEAN_MOTION    = 14.39657023
ECCENTRICITY   = .00076346
INCLINATION    = 98.4688
RA_OF_ASC_NODE = 23.1415
ARG_OF_PERICENTER = 131.8672
MEAN_ANOMALY   = 254.3494

EPHEMERIS_TYPE = 0
CLASSIFICATION_TYPE = U
NORAD_CAT_ID   = 23561
ELEMENT_SET_NO = 999
REV_AT_EPOCH   = 60219
BSTAR          = .18951488E-3
MEAN_MOTION_DOT = .549E-5
MEAN_MOTION_DDOT = 0

CCSDS_OMM_VERS = 2.0
CREATION_DATE  = 
ORIGINATOR     = 

OBJECT_NAME    = SL-16 R/B
OBJECT_ID      = 1995-058B
CENTER_NAME    = EARTH
REF_FRAME      = TEME
TIME_SYSTEM    = UTC
MEAN_ELEMENT_THEORY = SGP/SGP4

EPOCH          = 2025-11-11T06:19:24.859488
MEAN_MOTION    = 14.15476491
ECCENTRICITY   = .00147849
INCLINATION    = 71.0224
RA_OF_ASC_NODE = 68.8853
ARG_OF_PERICENTER = 295.9610
MEAN_ANOMALY   = 63.9990

EPHEMERIS_TYPE = 0
CLASSIFICATION_TYPE = U
NORAD_CAT_ID   = 23705
ELEMENT_SET_NO = 999
REV_AT_EPOCH   = 55109
BSTAR          = .35572537E-4
MEAN_MOTION_DOT = .22E-6
MEAN_MOTION_DDOT = 0

