SL-16 R/B               
1 22285U 92093B   25315.22473287  .00000415  00000+0  23696-3 0  9991
2 22285  71.0211 252.9487 0002901 157.2328 202.8924 14.15422771696394
COSMOS 2228             
1 22286U 92094A   25315.26665562  .00003595  00000+0  31326-3 0  9997
2 22286  82.5189 350.6462 0017550 345.7184  14.3539 14.96514239758347
SL-16 R/B               
1 22566U 93016B   25315.11199931  .00000170  00000+0  11158-3 0  9996
2 22566  71.0054 104.2276 0009184 155.1497 205.0070 14.15279131685395
COSMOS 2242             
1 22626U 93024A   25315.26617860  .00003753  00000+0  33244-3 0  9994
2 22626  82.5213  19.9199 0015999 348.7794  11.3068 14.95912266762687
SL-16 R/B               
1 22803U 93059B   25315.25246074  .00000344  00000+0  19391-3 0  9993
2 22803  70.9896 260.8815 0016070  23.5931 336.5926 14.17204206662750
ARIANE 40 R/B           
1 22830U 93061H   25315.19288900  .00000404  00000+0  16425-3 0  9995
2 22830  98.5114  21.2913 0009602 275.1524  84.8564 14.32770461677130
COSMOS 2278             
1 23087U 94023A   25315.27534625  .00000423  00000+0  24575-3 0  9992
2 23087  71.0536  62.8353 0010088 219.6377 140.4010 14.14335991628065
SL-16 R/B               
1 23088U 94023B   25315.30525477 -.00000156  00000+0 -55871-4 0  9991
2 23088  70.9998 319.5015 0001448 166.9820 193.1341 14.14992665629341
SL-16 R/B               
1 23343U 94074B   25315.08506600  .00000825  00000+0  11765-3 0  9997
2 23343  97.7243 345.6416 0005257 241.7794 175.6275 14.79233286669718
SL-16 R/B               
1 23405U 94077B   25315.19171896  .00000368  00000+0  21247-3 0  9994
2 23405  70.9826 241.7796 0003851 310.1878  49.8907 14.15543482599466
ARIANE 40+ R/B          
1 23561U 95021B   25315.17676872  .00000549  00000+0  18951-3 0  9998
2 23561  98.4688  23.1415 0007634 131.8672 254.3494 14.39657023602195
SL-16 R/B               
1 23705U 95058B   25315.26348217  .00000022  00000+0  35573-4 0  9993
2 23705  71.0224  68.8853 0014784 295.9610  63.9990 14.15476491551097
